start=new Date('2022-01-25T00:00:00.000Z').valueOf();
sats=[{"DECAY_DATE":null,"OBJECT_NAME":"STARLINK-1898","PERIOD":"93.226","ARG_OF_PERICENTER":"130.1004","PERIAPSIS":"430.059","OBJECT_ID":"2020-074G","GP_ID":"194569911","RCS_SIZE":"LARGE","FILE":"3282614","TIME_SYSTEM":"UTC","REV_AT_EPOCH":"7010","REF_FRAME":"TEME","BSTAR":"0.00024353000000","CENTER_NAME":"EARTH","ELEMENT_SET_NO":"999","EPHEMERIS_TYPE":"0","CLASSIFICATION_TYPE":"U","TLE_LINE2":"2 46745  53.0545 219.5491 0003538 130.1004 230.0312 15.44629778 70101","MEAN_MOTION":"15.44629778","EPOCH":"2022-01-24T19:30:11.162880","INCLINATION":"53.0545","MEAN_ANOMALY":"230.0312","ECCENTRICITY":"0.00035380","COUNTRY_CODE":"US","RA_OF_ASC_NODE":"219.5491","APOAPSIS":"434.878","MEAN_MOTION_DDOT":"0.0000000000000","MEAN_ELEMENT_THEORY":"SGP4","NORAD_CAT_ID":"46745","OBJECT_TYPE":"PAYLOAD","TLE_LINE1":"1 46745U 20074G   22024.81262920  .00011113  00000-0  24353-3 0  9996","SITE":"AFETR","MEAN_MOTION_DOT":"0.00011113","LAUNCH_DATE":"2020-10-24","SEMIMAJOR_AXIS":"6810.603"},{"GP_ID":"194571162","RCS_SIZE":"LARGE","EPHEMERIS_TYPE":"0","ELEMENT_SET_NO":"999","CLASSIFICATION_TYPE":"U","TLE_LINE2":"2 46746  53.0543 236.9683 0001949  75.3508 284.7697 15.06402640 69867","FILE":"3282614","TIME_SYSTEM":"UTC","REF_FRAME":"TEME","REV_AT_EPOCH":"6986","BSTAR":"0.00012727000000","CENTER_NAME":"EARTH","DECAY_DATE":null,"OBJECT_NAME":"STARLINK-1905","PERIAPSIS":"545.856","OBJECT_ID":"2020-074H","PERIOD":"95.592","ARG_OF_PERICENTER":"75.3508","NORAD_CAT_ID":"46746","MEAN_ELEMENT_THEORY":"SGP4","MEAN_MOTION_DOT":"0.00001615","LAUNCH_DATE":"2020-10-24","SEMIMAJOR_AXIS":"6925.340","SITE":"AFETR","TLE_LINE1":"1 46746U 20074H   22024.88015594  .00001615  00000-0  12727-3 0  9995","OBJECT_TYPE":"PAYLOAD","INCLINATION":"53.0543","MEAN_ANOMALY":"284.7697","ECCENTRICITY":"0.00019490","MEAN_MOTION":"15.06402640","EPOCH":"2022-01-24T21:07:25.473216","MEAN_MOTION_DDOT":"0.0000000000000","RA_OF_ASC_NODE":"236.9683","COUNTRY_CODE":"US","APOAPSIS":"548.555"},{"ECCENTRICITY":"0.00022300","MEAN_ANOMALY":"286.1334","INCLINATION":"53.0534","EPOCH":"2022-01-24T20:40:52.624416","MEAN_MOTION":"15.06404007","MEAN_MOTION_DDOT":"0.0000000000000","APOAPSIS":"548.746","RA_OF_ASC_NODE":"237.0411","COUNTRY_CODE":"US","NORAD_CAT_ID":"46747","MEAN_ELEMENT_THEORY":"SGP4","SEMIMAJOR_AXIS":"6925.336","LAUNCH_DATE":"2020-10-24","MEAN_MOTION_DOT":"-0.00000970","TLE_LINE1":"1 46747U 20074J   22024.86172019 -.00000970  00000-0 -46211-4 0  9991","SITE":"AFETR","OBJECT_TYPE":"PAYLOAD","OBJECT_NAME":"STARLINK-1908","DECAY_DATE":null,"OBJECT_ID":"2020-074J","PERIAPSIS":"545.657","ARG_OF_PERICENTER":"73.9900","PERIOD":"95.592","RCS_SIZE":"LARGE","GP_ID":"194570906","TLE_LINE2":"2 46747  53.0534 237.0411 0002230  73.9900 286.1334 15.06404007 69866","CLASSIFICATION_TYPE":"U","ELEMENT_SET_NO":"999","EPHEMERIS_TYPE":"0","REV_AT_EPOCH":"6986","REF_FRAME":"TEME","BSTAR":"-0.00004621100000","CENTER_NAME":"EARTH","FILE":"3282614","TIME_SYSTEM":"UTC"},{"MEAN_MOTION":"15.06405829","EPOCH":"2022-01-24T20:51:29.452032","MEAN_ANOMALY":"286.5576","INCLINATION":"53.0531","ECCENTRICITY":"0.00020460","COUNTRY_CODE":"US","RA_OF_ASC_NODE":"237.0253","APOAPSIS":"548.613","MEAN_MOTION_DDOT":"0.0000000000000","MEAN_ELEMENT_THEORY":"SGP4","NORAD_CAT_ID":"46748","OBJECT_TYPE":"PAYLOAD","TLE_LINE1":"1 46748U 20074K   22024.86909088 -.00000914  00000-0 -42419-4 0  9990","SITE":"AFETR","MEAN_MOTION_DOT":"-0.00000914","SEMIMAJOR_AXIS":"6925.331","LAUNCH_DATE":"2020-10-24","DECAY_DATE":null,"OBJECT_NAME":"STARLINK-1910","PERIOD":"95.592","ARG_OF_PERICENTER":"73.5638","PERIAPSIS":"545.779","OBJECT_ID":"2020-074K","GP_ID":"194570161","RCS_SIZE":"LARGE","TIME_SYSTEM":"UTC","FILE":"3282614","CENTER_NAME":"EARTH","BSTAR":"-0.00004241900000","REV_AT_EPOCH":"6986","REF_FRAME":"TEME","ELEMENT_SET_NO":"999","EPHEMERIS_TYPE":"0","CLASSIFICATION_TYPE":"U","TLE_LINE2":"2 46748  53.0531 237.0253 0002046  73.5638 286.5576 15.06405829 69862"},{"DECAY_DATE":null,"OBJECT_NAME":"STARLINK-1911","PERIOD":"95.592","ARG_OF_PERICENTER":"74.3493","PERIAPSIS":"545.918","OBJECT_ID":"2020-074L","GP_ID":"194570411","RCS_SIZE":"LARGE","FILE":"3282614","TIME_SYSTEM":"UTC","REF_FRAME":"TEME","REV_AT_EPOCH":"6986","BSTAR":"0.00013682000000","CENTER_NAME":"EARTH","ELEMENT_SET_NO":"999","CLASSIFICATION_TYPE":"U","EPHEMERIS_TYPE":"0","TLE_LINE2":"2 46749  53.0545 236.9918 0001866  74.3493 285.7702 15.06401008 69868","MEAN_MOTION":"15.06401008","EPOCH":"2022-01-24T21:02:07.307808","INCLINATION":"53.0545","MEAN_ANOMALY":"285.7702","ECCENTRICITY":"0.00018660","COUNTRY_CODE":"US","RA_OF_ASC_NODE":"236.9918","APOAPSIS":"548.503","MEAN_MOTION_DDOT":"0.0000000000000","MEAN_ELEMENT_THEORY":"SGP4","NORAD_CAT_ID":"46749","TLE_LINE1":"1 46749U 20074L   22024.87647347  .00001757  00000-0  13682-3 0  9992","OBJECT_TYPE":"PAYLOAD","SITE":"AFETR","MEAN_MOTION_DOT":"0.00001757","LAUNCH_DATE":"2020-10-24","SEMIMAJOR_AXIS":"6925.345"},{"MEAN_ELEMENT_THEORY":"SGP4","NORAD_CAT_ID":"46751","SITE":"AFETR","TLE_LINE1":"1 46751U 20074N   22024.87278559 -.00000701  00000-0 -28187-4 0  9997","OBJECT_TYPE":"PAYLOAD","MEAN_MOTION_DOT":"-0.00000701","SEMIMAJOR_AXIS":"6925.374","LAUNCH_DATE":"2020-10-24","MEAN_MOTION":"15.06391708","EPOCH":"2022-01-24T20:56:48.674976","INCLINATION":"53.0537","MEAN_ANOMALY":"281.9620","ECCENTRICITY":"0.00020290","COUNTRY_CODE":"US","RA_OF_ASC_NODE":"237.0080","APOAPSIS":"548.644","MEAN_MOTION_DDOT":"0.0000000000000","GP_ID":"194570663","RCS_SIZE":"LARGE","FILE":"3282614","TIME_SYSTEM":"UTC","CENTER_NAME":"EARTH","BSTAR":"-0.00002818700000","REF_FRAME":"TEME","REV_AT_EPOCH":"6986","CLASSIFICATION_TYPE":"U","ELEMENT_SET_NO":"999","EPHEMERIS_TYPE":"0","TLE_LINE2":"2 46751  53.0537 237.0080 0002029  78.1596 281.9620 15.06391708 69864","DECAY_DATE":null,"OBJECT_NAME":"STARLINK-1920","PERIOD":"95.593","ARG_OF_PERICENTER":"78.1596","PERIAPSIS":"545.834","OBJECT_ID":"2020-074N"},{"SEMIMAJOR_AXIS":"6925.319","LAUNCH_DATE":"2020-10-24","MEAN_MOTION_DOT":"0.00001927","TLE_LINE1":"1 46752U 20074P   22024.88382860  .00001927  00000-0  14823-3 0  9990","OBJECT_TYPE":"PAYLOAD","SITE":"AFETR","NORAD_CAT_ID":"46752","MEAN_ELEMENT_THEORY":"SGP4","MEAN_MOTION_DDOT":"0.0000000000000","APOAPSIS":"548.591","COUNTRY_CODE":"US","RA_OF_ASC_NODE":"236.9545","ECCENTRICITY":"0.00020330","INCLINATION":"53.0519","MEAN_ANOMALY":"293.9917","EPOCH":"2022-01-24T21:12:42.791040","MEAN_MOTION":"15.06409786","TLE_LINE2":"2 46752  53.0519 236.9545 0002033  66.1285 293.9917 15.06409786 69864","CLASSIFICATION_TYPE":"U","ELEMENT_SET_NO":"999","EPHEMERIS_TYPE":"0","CENTER_NAME":"EARTH","BSTAR":"0.00014823000000","REV_AT_EPOCH":"6986","REF_FRAME":"TEME","FILE":"3282614","TIME_SYSTEM":"UTC","RCS_SIZE":"LARGE","GP_ID":"194571406","OBJECT_ID":"2020-074P","PERIAPSIS":"545.776","ARG_OF_PERICENTER":"66.1285","PERIOD":"95.592","OBJECT_NAME":"STARLINK-1921","DECAY_DATE":null},{"RCS_SIZE":"LARGE","GP_ID":"194569662","REV_AT_EPOCH":"6986","REF_FRAME":"TEME","CENTER_NAME":"EARTH","BSTAR":"0.00012727000000","FILE":"3282614","TIME_SYSTEM":"UTC","TLE_LINE2":"2 46753  53.0536 237.0970 0001786  79.8837 280.2354 15.06401705 69863","ELEMENT_SET_NO":"999","CLASSIFICATION_TYPE":"U","EPHEMERIS_TYPE":"0","OBJECT_NAME":"STARLINK-1922","DECAY_DATE":null,"ARG_OF_PERICENTER":"79.8837","PERIOD":"95.592","OBJECT_ID":"2020-074Q","PERIAPSIS":"545.971","MEAN_ELEMENT_THEORY":"SGP4","NORAD_CAT_ID":"46753","TLE_LINE1":"1 46753U 20074Q   22024.85067281  .00001615  00000-0  12727-3 0  9990","OBJECT_TYPE":"PAYLOAD","SITE":"AFETR","LAUNCH_DATE":"2020-10-24","SEMIMAJOR_AXIS":"6925.343","MEAN_MOTION_DOT":"0.00001615","EPOCH":"2022-01-24T20:24:58.130784","MEAN_MOTION":"15.06401705","ECCENTRICITY":"0.00017860","INCLINATION":"53.0536","MEAN_ANOMALY":"280.2354","APOAPSIS":"548.445","COUNTRY_CODE":"US","RA_OF_ASC_NODE":"237.0970","MEAN_MOTION_DDOT":"0.0000000000000"},{"TLE_LINE2":"2 46754  53.0531 237.0657 0002088  75.6410 284.4811 15.06400159 69864","ELEMENT_SET_NO":"999","EPHEMERIS_TYPE":"0","CLASSIFICATION_TYPE":"U","REV_AT_EPOCH":"6986","REF_FRAME":"TEME","CENTER_NAME":"EARTH","BSTAR":"0.00009360000000","TIME_SYSTEM":"UTC","FILE":"3282614","RCS_SIZE":"LARGE","GP_ID":"194569912","OBJECT_ID":"2020-074R","PERIAPSIS":"545.767","ARG_OF_PERICENTER":"75.6410","PERIOD":"95.592","OBJECT_NAME":"STARLINK-1923","DECAY_DATE":null,"SEMIMAJOR_AXIS":"6925.348","LAUNCH_DATE":"2020-10-24","MEAN_MOTION_DOT":"0.00001113","TLE_LINE1":"1 46754U 20074R   22024.85803025  .00001113  00000-0  93600-4 0  9998","SITE":"AFETR","OBJECT_TYPE":"PAYLOAD","NORAD_CAT_ID":"46754","MEAN_ELEMENT_THEORY":"SGP4","MEAN_MOTION_DDOT":"0.0000000000000","APOAPSIS":"548.659","COUNTRY_CODE":"US","RA_OF_ASC_NODE":"237.0657","ECCENTRICITY":"0.00020880","MEAN_ANOMALY":"284.4811","INCLINATION":"53.0531","EPOCH":"2022-01-24T20:35:33.813600","MEAN_MOTION":"15.06400159"},{"MEAN_ELEMENT_THEORY":"SGP4","NORAD_CAT_ID":"46755","OBJECT_TYPE":"PAYLOAD","TLE_LINE1":"1 46755U 20074S   22024.86312851  .00002464  00000-0  18430-3 0  9999","SITE":"AFETR","MEAN_MOTION_DOT":"0.00002464","SEMIMAJOR_AXIS":"6925.364","LAUNCH_DATE":"2020-10-24","MEAN_MOTION":"15.06394823","EPOCH":"2022-01-24T20:42:54.303264","INCLINATION":"53.0523","MEAN_ANOMALY":"290.4423","ECCENTRICITY":"0.00019130","COUNTRY_CODE":"US","RA_OF_ASC_NODE":"242.0474","APOAPSIS":"548.554","MEAN_MOTION_DDOT":"0.0000000000000","GP_ID":"194571163","RCS_SIZE":"LARGE","FILE":"3282614","TIME_SYSTEM":"UTC","BSTAR":"0.00018430000000","CENTER_NAME":"EARTH","REV_AT_EPOCH":"6979","REF_FRAME":"TEME","CLASSIFICATION_TYPE":"U","ELEMENT_SET_NO":"999","EPHEMERIS_TYPE":"0","TLE_LINE2":"2 46755  53.0523 242.0474 0001913  69.6772 290.4423 15.06394823 69797","DECAY_DATE":null,"OBJECT_NAME":"STARLINK-1924","PERIOD":"95.592","ARG_OF_PERICENTER":"69.6772","PERIAPSIS":"545.905","OBJECT_ID":"2020-074S"}];
